[{"OBJECT_NAME":"STARLINK-31808","OBJECT_ID":"2024-090X","EPOCH":"2025-10-26T20:03:07.441056","MEAN_MOTION":15.27570439,"ECCENTRICITY":0.00011764,"INCLINATION":43.0021,"RA_OF_ASC_NODE":219.0261,"ARG_OF_PERICENTER":287.2606,"MEAN_ANOMALY":72.8117,"EPHEMERIS_TYPE":0,"CLASSIFICATION_TYPE":"U","NORAD_CAT_ID":59751,"ELEMENT_SET_NO":999,"REV_AT_EPOCH":8296,"BSTAR":-5.058045e-6,"MEAN_MOTION_DOT":-4.01e-6,"MEAN_MOTION_DDOT":0},{"OBJECT_NAME":"STARLINK-31822","OBJECT_ID":"2024-090Y","EPOCH":"2025-10-26T03:18:50.940576","MEAN_MOTION":15.27578133,"ECCENTRICITY":0.00017188,"INCLINATION":43.0044,"RA_OF_ASC_NODE":223.2462,"ARG_OF_PERICENTER":266.4754,"MEAN_ANOMALY":93.5901,"EPHEMERIS_TYPE":0,"CLASSIFICATION_TYPE":"U","NORAD_CAT_ID":59752,"ELEMENT_SET_NO":999,"REV_AT_EPOCH":8285,"BSTAR":-3.8865252e-5,"MEAN_MOTION_DOT":-1.332e-5,"MEAN_MOTION_DDOT":0},{"OBJECT_NAME":"STARLINK-11118 [DTC]","OBJECT_ID":"2024-091B","EPOCH":"2025-10-26T19:46:06.222432","MEAN_MOTION":15.69707592,"ECCENTRICITY":6.288e-5,"INCLINATION":53.1581,"RA_OF_ASC_NODE":146.5085,"ARG_OF_PERICENTER":83.5387,"MEAN_ANOMALY":276.5703,"EPHEMERIS_TYPE":0,"CLASSIFICATION_TYPE":"U","NORAD_CAT_ID":59754,"ELEMENT_SET_NO":999,"REV_AT_EPOCH":8448,"BSTAR":6.317504e-6,"MEAN_MOTION_DOT":1.77e-6,"MEAN_MOTION_DDOT":0},{"OBJECT_NAME":"STARLINK-11132 [DTC]","OBJECT_ID":"2024-091C","EPOCH":"2025-10-26T21:03:40.097952","MEAN_MOTION":15.69705454,"ECCENTRICITY":0.00018687,"INCLINATION":53.16,"RA_OF_ASC_NODE":146.129,"ARG_OF_PERICENTER":46.2655,"MEAN_ANOMALY":313.8517,"EPHEMERIS_TYPE":0,"CLASSIFICATION_TYPE":"U","NORAD_CAT_ID":59755,"ELEMENT_SET_NO":999,"REV_AT_EPOCH":8449,"BSTAR":-5.81377e-7,"MEAN_MOTION_DOT":-6.6e-6,"MEAN_MOTION_DDOT":0},{"OBJECT_NAME":"STARLINK-11131 [DTC]","OBJECT_ID":"2024-091D","EPOCH":"2025-10-26T20:56:35.119680","MEAN_MOTION":15.69715957,"ECCENTRICITY":7.962e-5,"INCLINATION":53.1588,"RA_OF_ASC_NODE":146.0998,"ARG_OF_PERICENTER":74.2486,"MEAN_ANOMALY":285.8619,"EPHEMERIS_TYPE":0,"CLASSIFICATION_TYPE":"U","NORAD_CAT_ID":59756,"ELEMENT_SET_NO":999,"REV_AT_EPOCH":8449,"BSTAR":2.3628044e-5,"MEAN_MOTION_DOT":2.276e-5,"MEAN_MOTION_DDOT":0},{"OBJECT_NAME":"STARLINK-11114 [DTC]","OBJECT_ID":"2024-091E","EPOCH":"2025-10-26T20:49:33.322656","MEAN_MOTION":15.69685228,"ECCENTRICITY":0.0001005,"INCLINATION":53.1588,"RA_OF_ASC_NODE":146.0881,"ARG_OF_PERICENTER":84.9024,"MEAN_ANOMALY":275.2108,"EPHEMERIS_TYPE":0,"CLASSIFICATION_TYPE":"U","NORAD_CAT_ID":59757,"ELEMENT_SET_NO":999,"REV_AT_EPOCH":8449,"BSTAR":-1.623839e-5,"MEAN_MOTION_DOT":-2.553e-5,"MEAN_MOTION_DDOT":0},{"OBJECT_NAME":"STARLINK-11105 [DTC]","OBJECT_ID":"2024-091F","EPOCH":"2025-10-26T20:42:27.715392","MEAN_MOTION":15.69722889,"ECCENTRICITY":8.967e-5,"INCLINATION":53.1586,"RA_OF_ASC_NODE":146.0505,"ARG_OF_PERICENTER":97.9312,"MEAN_ANOMALY":262.1808,"EPHEMERIS_TYPE":0,"CLASSIFICATION_TYPE":"U","NORAD_CAT_ID":59758,"ELEMENT_SET_NO":999,"REV_AT_EPOCH":8449,"BSTAR":3.165812e-6,"MEAN_MOTION_DOT":-2.05e-6,"MEAN_MOTION_DDOT":0},{"OBJECT_NAME":"STARLINK-11097 [DTC]","OBJECT_ID":"2024-091G","EPOCH":"2025-10-26T20:35:23.851680","MEAN_MOTION":15.69716213,"ECCENTRICITY":7.045e-5,"INCLINATION":53.1585,"RA_OF_ASC_NODE":145.9996,"ARG_OF_PERICENTER":81.3709,"MEAN_ANOMALY":278.7389,"EPHEMERIS_TYPE":0,"CLASSIFICATION_TYPE":"U","NORAD_CAT_ID":59759,"ELEMENT_SET_NO":999,"REV_AT_EPOCH":8449,"BSTAR":6.545358e-6,"MEAN_MOTION_DOT":2.05e-6,"MEAN_MOTION_DDOT":0},{"OBJECT_NAME":"STARLINK-11098 [DTC]","OBJECT_ID":"2024-091H","EPOCH":"2025-10-26T20:28:20.323200","MEAN_MOTION":15.697246,"ECCENTRICITY":8.912e-5,"INCLINATION":53.1571,"RA_OF_ASC_NODE":145.9649,"ARG_OF_PERICENTER":88.3223,"MEAN_ANOMALY":271.7897,"EPHEMERIS_TYPE":0,"CLASSIFICATION_TYPE":"U","NORAD_CAT_ID":59760,"ELEMENT_SET_NO":999,"REV_AT_EPOCH":8449,"BSTAR":0.0001017574,"MEAN_MOTION_DOT":0.00011764,"MEAN_MOTION_DDOT":0},{"OBJECT_NAME":"STARLINK-11117 [DTC]","OBJECT_ID":"2024-091J","EPOCH":"2025-10-26T20:21:16.364448","MEAN_MOTION":15.69715753,"ECCENTRICITY":8.603e-5,"INCLINATION":53.1581,"RA_OF_ASC_NODE":145.9329,"ARG_OF_PERICENTER":78.4331,"MEAN_ANOMALY":281.6784,"EPHEMERIS_TYPE":0,"CLASSIFICATION_TYPE":"U","NORAD_CAT_ID":59761,"ELEMENT_SET_NO":999,"REV_AT_EPOCH":8449,"BSTAR":3.437933e-6,"MEAN_MOTION_DOT":-1.72e-6,"MEAN_MOTION_DDOT":0},{"OBJECT_NAME":"STARLINK-11110 [DTC]","OBJECT_ID":"2024-091K","EPOCH":"2025-10-26T20:14:12.681312","MEAN_MOTION":15.69710042,"ECCENTRICITY":0.0001081,"INCLINATION":53.1591,"RA_OF_ASC_NODE":145.8999,"ARG_OF_PERICENTER":107.2791,"MEAN_ANOMALY":252.8345,"EPHEMERIS_TYPE":0,"CLASSIFICATION_TYPE":"U","NORAD_CAT_ID":59762,"ELEMENT_SET_NO":999,"REV_AT_EPOCH":8449,"BSTAR":-7.122964e-6,"MEAN_MOTION_DOT":-1.451e-5,"MEAN_MOTION_DDOT":0},{"OBJECT_NAME":"STARLINK-11104 [DTC]","OBJECT_ID":"2024-091L","EPOCH":"2025-10-26T23:10:30.890784","MEAN_MOTION":15.69709202,"ECCENTRICITY":6.17e-5,"INCLINATION":53.1592,"RA_OF_ASC_NODE":145.2399,"ARG_OF_PERICENTER":123.8009,"MEAN_ANOMALY":236.3068,"EPHEMERIS_TYPE":0,"CLASSIFICATION_TYPE":"U","NORAD_CAT_ID":59763,"ELEMENT_SET_NO":999,"REV_AT_EPOCH":8451,"BSTAR":1.0247714e-5,"MEAN_MOTION_DOT":6.54e-6,"MEAN_MOTION_DDOT":0},{"OBJECT_NAME":"STARLINK-11111 [DTC]","OBJECT_ID":"2024-091M","EPOCH":"2025-10-26T19:53:01.273344","MEAN_MOTION":15.69710555,"ECCENTRICITY":9.988e-5,"INCLINATION":53.1588,"RA_OF_ASC_NODE":145.8041,"ARG_OF_PERICENTER":77.011,"MEAN_ANOMALY":283.102,"EPHEMERIS_TYPE":0,"CLASSIFICATION_TYPE":"U","NORAD_CAT_ID":59764,"ELEMENT_SET_NO":999,"REV_AT_EPOCH":8449,"BSTAR":5.245054e-6,"MEAN_MOTION_DOT":4.7e-7,"MEAN_MOTION_DDOT":0},{"OBJECT_NAME":"STARLINK-11106 [DTC]","OBJECT_ID":"2024-091N","EPOCH":"2025-10-26T20:00:05.232096","MEAN_MOTION":15.69709225,"ECCENTRICITY":0.00012628,"INCLINATION":53.1597,"RA_OF_ASC_NODE":145.837,"ARG_OF_PERICENTER":93.5425,"MEAN_ANOMALY":266.5738,"EPHEMERIS_TYPE":0,"CLASSIFICATION_TYPE":"U","NORAD_CAT_ID":59765,"ELEMENT_SET_NO":999,"REV_AT_EPOCH":8449,"BSTAR":8.466005e-6,"MEAN_MOTION_DOT":4.37e-6,"MEAN_MOTION_DDOT":0},{"OBJECT_NAME":"STARLINK-31739","OBJECT_ID":"2024-091P","EPOCH":"2025-10-26T23:26:03.837984","MEAN_MOTION":15.30196446,"ECCENTRICITY":0.00012722,"INCLINATION":53.1609,"RA_OF_ASC_NODE":285.0453,"ARG_OF_PERICENTER":84.7535,"MEAN_ANOMALY":275.3611,"EPHEMERIS_TYPE":0,"CLASSIFICATION_TYPE":"U","NORAD_CAT_ID":59766,"ELEMENT_SET_NO":999,"REV_AT_EPOCH":8257,"BSTAR":5.4727259e-5,"MEAN_MOTION_DOT":1.262e-5,"MEAN_MOTION_DDOT":0},{"OBJECT_NAME":"STARLINK-31828","OBJECT_ID":"2024-091Q","EPOCH":"2025-10-26T06:33:40.000896","MEAN_MOTION":15.30192766,"ECCENTRICITY":0.0001531,"INCLINATION":53.1586,"RA_OF_ASC_NODE":291.3078,"ARG_OF_PERICENTER":88.8824,"MEAN_ANOMALY":271.2352,"EPHEMERIS_TYPE":0,"CLASSIFICATION_TYPE":"U","NORAD_CAT_ID":59767,"ELEMENT_SET_NO":999,"REV_AT_EPOCH":8242,"BSTAR":-2.8615e-5,"MEAN_MOTION_DOT":-1.207e-5,"MEAN_MOTION_DDOT":0},{"OBJECT_NAME":"STARLINK-31826","OBJECT_ID":"2024-091R","EPOCH":"2025-10-26T16:02:32.904096","MEAN_MOTION":15.30200819,"ECCENTRICITY":0.00010945,"INCLINATION":53.1593,"RA_OF_ASC_NODE":289.5093,"ARG_OF_PERICENTER":84.2926,"MEAN_ANOMALY":275.82,"EPHEMERIS_TYPE":0,"CLASSIFICATION_TYPE":"U","NORAD_CAT_ID":59768,"ELEMENT_SET_NO":999,"REV_AT_EPOCH":8248,"BSTAR":3.957907e-5,"MEAN_MOTION_DOT":8.13e-6,"MEAN_MOTION_DDOT":0},{"OBJECT_NAME":"STARLINK-31830","OBJECT_ID":"2024-091S","EPOCH":"2025-10-26T16:07:06.751488","MEAN_MOTION":15.30197218,"ECCENTRICITY":0.00013298,"INCLINATION":53.16,"RA_OF_ASC_NODE":289.5287,"ARG_OF_PERICENTER":91.9611,"MEAN_ANOMALY":268.1542,"EPHEMERIS_TYPE":0,"CLASSIFICATION_TYPE":"U","NORAD_CAT_ID":59769,"ELEMENT_SET_NO":999,"REV_AT_EPOCH":8248,"BSTAR":2.0372977e-5,"MEAN_MOTION_DOT":2.44e-6,"MEAN_MOTION_DDOT":0},{"OBJECT_NAME":"STARLINK-31829","OBJECT_ID":"2024-091T","EPOCH":"2025-10-26T06:29:06.813600","MEAN_MOTION":15.30198891,"ECCENTRICITY":0.0001159,"INCLINATION":53.1596,"RA_OF_ASC_NODE":291.2924,"ARG_OF_PERICENTER":89.5191,"MEAN_ANOMALY":270.5943,"EPHEMERIS_TYPE":0,"CLASSIFICATION_TYPE":"U","NORAD_CAT_ID":59770,"ELEMENT_SET_NO":999,"REV_AT_EPOCH":8242,"BSTAR":4.6893e-5,"MEAN_MOTION_DOT":1.03e-5,"MEAN_MOTION_DDOT":0},{"OBJECT_NAME":"STARLINK-31786","OBJECT_ID":"2024-091U","EPOCH":"2025-10-26T16:13:13.516032","MEAN_MOTION":15.30167141,"ECCENTRICITY":0.00011748,"INCLINATION":53.1597,"RA_OF_ASC_NODE":289.5539,"ARG_OF_PERICENTER":90.0208,"MEAN_ANOMALY":270.0927,"EPHEMERIS_TYPE":0,"CLASSIFICATION_TYPE":"U","NORAD_CAT_ID":59771,"ELEMENT_SET_NO":999,"REV_AT_EPOCH":8248,"BSTAR":-4.8673501e-5,"MEAN_MOTION_DOT":-1.799e-5,"MEAN_MOTION_DDOT":0},{"OBJECT_NAME":"STARLINK-31835","OBJECT_ID":"2024-091V","EPOCH":"2025-10-26T23:39:08.508960","MEAN_MOTION":15.30190992,"ECCENTRICITY":0.00014207,"INCLINATION":53.1612,"RA_OF_ASC_NODE":287.9314,"ARG_OF_PERICENTER":90.4101,"MEAN_ANOMALY":269.7062,"EPHEMERIS_TYPE":0,"CLASSIFICATION_TYPE":"U","NORAD_CAT_ID":59772,"ELEMENT_SET_NO":999,"REV_AT_EPOCH":8253,"BSTAR":7.0509411e-5,"MEAN_MOTION_DOT":1.729e-5,"MEAN_MOTION_DDOT":0},{"OBJECT_NAME":"STARLINK-31363","OBJECT_ID":"2024-093A","EPOCH":"2025-10-26T04:49:12.717696","MEAN_MOTION":15.27574653,"ECCENTRICITY":0.0001025,"INCLINATION":42.9993,"RA_OF_ASC_NODE":245.2124,"ARG_OF_PERICENTER":267.1702,"MEAN_ANOMALY":92.9033,"EPHEMERIS_TYPE":0,"CLASSIFICATION_TYPE":"U","NORAD_CAT_ID":59782,"ELEMENT_SET_NO":999,"REV_AT_EPOCH":8216,"BSTAR":2.4531e-5,"MEAN_MOTION_DOT":4.13e-6,"MEAN_MOTION_DDOT":0},{"OBJECT_NAME":"STARLINK-31868","OBJECT_ID":"2024-093B","EPOCH":"2025-10-26T06:25:13.740960","MEAN_MOTION":15.27572011,"ECCENTRICITY":9.14e-5,"INCLINATION":43.0005,"RA_OF_ASC_NODE":244.8161,"ARG_OF_PERICENTER":290.1137,"MEAN_ANOMALY":69.9617,"EPHEMERIS_TYPE":0,"CLASSIFICATION_TYPE":"U","NORAD_CAT_ID":59783,"ELEMENT_SET_NO":999,"REV_AT_EPOCH":8217,"BSTAR":1.9173e-5,"MEAN_MOTION_DOT":2.66e-6,"MEAN_MOTION_DDOT":0}]
